[{"OBJECT_NAME":"STARLINK-35809","OBJECT_ID":"2025-254AB","EPOCH":"2026-03-09T17:17:47.380128","MEAN_MOTION":15.30203479,"ECCENTRICITY":0.00011798,"INCLINATION":53.1589,"RA_OF_ASC_NODE":229.9053,"ARG_OF_PERICENTER":68.321,"MEAN_ANOMALY":291.7917,"EPHEMERIS_TYPE":0,"CLASSIFICATION_TYPE":"U","NORAD_CAT_ID":66373,"ELEMENT_SET_NO":999,"REV_AT_EPOCH":1901,"BSTAR":0.00094978282,"MEAN_MOTION_DOT":0.00027879,"MEAN_MOTION_DDOT":0},{"OBJECT_NAME":"COSMOS 2251 DEB","OBJECT_ID":"1993-036RB","EPOCH":"2026-03-09T01:08:04.800192","MEAN_MOTION":15.30699894,"ECCENTRICITY":0.00252965,"INCLINATION":73.7308,"RA_OF_ASC_NODE":76.2904,"ARG_OF_PERICENTER":263.9966,"MEAN_ANOMALY":95.8352,"EPHEMERIS_TYPE":0,"CLASSIFICATION_TYPE":"U","NORAD_CAT_ID":34410,"ELEMENT_SET_NO":999,"REV_AT_EPOCH":91089,"BSTAR":0.003018315,"MEAN_MOTION_DOT":0.00091531,"MEAN_MOTION_DDOT":0}]
